[{"OBJECT_NAME":"STARLINK-31212","OBJECT_ID":"2024-019Y","EPOCH":"2026-03-09T12:57:40.886784","MEAN_MOTION":15.27568832,"ECCENTRICITY":8.631e-5,"INCLINATION":42.9981,"RA_OF_ASC_NODE":249.4121,"ARG_OF_PERICENTER":255.9308,"MEAN_ANOMALY":104.1448,"EPHEMERIS_TYPE":0,"CLASSIFICATION_TYPE":"U","NORAD_CAT_ID":58875,"ELEMENT_SET_NO":999,"REV_AT_EPOCH":11904,"BSTAR":-6.2490886e-5,"MEAN_MOTION_DOT":-1.98e-5,"MEAN_MOTION_DDOT":0},{"OBJECT_NAME":"CXBN","OBJECT_ID":"2012-048E","EPOCH":"2026-03-09T15:19:34.514688","MEAN_MOTION":15.19824857,"ECCENTRICITY":0.0107387,"INCLINATION":64.6612,"RA_OF_ASC_NODE":146.5396,"ARG_OF_PERICENTER":203.7806,"MEAN_ANOMALY":155.8339,"EPHEMERIS_TYPE":0,"CLASSIFICATION_TYPE":"U","NORAD_CAT_ID":38762,"ELEMENT_SET_NO":999,"REV_AT_EPOCH":10314,"BSTAR":0.00060054,"MEAN_MOTION_DOT":0.00014901,"MEAN_MOTION_DDOT":0}]
